MALLIGYONG-1            
1 58400U 23179A   24107.91393227  .00013461  00000+0  59271-3 0  9990
2 58400  97.4117 355.6812 0011234 114.0634 246.1779 15.21902674 22409
